STARLINK-32088          
1 59693U 24086M   26067.99786842 -.00000600  00000+0 -12278-4 0  9997
2 59693  43.0040  56.2538 0001937 282.4203  77.6432 15.27571863104093
TEVEL2-2                
1 63219U 25052K   26068.64848259  .00020339  00000+0  69428-3 0  9991
2 63219  97.3987 324.7700 0004693 105.7930 254.3828 15.30343745 54855
