[{"OBJECT_NAME":"STARLINK-32088","OBJECT_ID":"2024-086M","EPOCH":"2026-03-08T23:56:55.831488","MEAN_MOTION":15.27571863,"ECCENTRICITY":0.00019378,"INCLINATION":43.004,"RA_OF_ASC_NODE":56.2538,"ARG_OF_PERICENTER":282.4203,"MEAN_ANOMALY":77.6432,"EPHEMERIS_TYPE":0,"CLASSIFICATION_TYPE":"U","NORAD_CAT_ID":59693,"ELEMENT_SET_NO":999,"REV_AT_EPOCH":10409,"BSTAR":-1.227843e-5,"MEAN_MOTION_DOT":-6.0e-6,"MEAN_MOTION_DDOT":0},{"OBJECT_NAME":"TEVEL2-2","OBJECT_ID":"2025-052K","EPOCH":"2026-03-09T15:33:48.895776","MEAN_MOTION":15.30343745,"ECCENTRICITY":0.0004693,"INCLINATION":97.3987,"RA_OF_ASC_NODE":324.77,"ARG_OF_PERICENTER":105.793,"MEAN_ANOMALY":254.3828,"EPHEMERIS_TYPE":0,"CLASSIFICATION_TYPE":"U","NORAD_CAT_ID":63219,"ELEMENT_SET_NO":999,"REV_AT_EPOCH":5485,"BSTAR":0.00069428,"MEAN_MOTION_DOT":0.00020339,"MEAN_MOTION_DDOT":0}]
